[{"OBJECT_NAME":"STARLINK-3116","OBJECT_ID":"2021-082S","EPOCH":"2026-03-09T22:32:59.013888","MEAN_MOTION":14.97513823,"ECCENTRICITY":0.00026435,"INCLINATION":69.9979,"RA_OF_ASC_NODE":274.6179,"ARG_OF_PERICENTER":268.8124,"MEAN_ANOMALY":91.2732,"EPHEMERIS_TYPE":0,"CLASSIFICATION_TYPE":"U","NORAD_CAT_ID":49146,"ELEMENT_SET_NO":999,"REV_AT_EPOCH":24764,"BSTAR":0.00021077338,"MEAN_MOTION_DOT":2.371e-5,"MEAN_MOTION_DDOT":0},{"OBJECT_NAME":"PEGASUS DEB","OBJECT_ID":"1994-029ABU","EPOCH":"2026-03-08T09:55:10.155936","MEAN_MOTION":14.19535939,"ECCENTRICITY":0.03610507,"INCLINATION":81.685,"RA_OF_ASC_NODE":93.5097,"ARG_OF_PERICENTER":18.2292,"MEAN_ANOMALY":45.8022,"EPHEMERIS_TYPE":0,"CLASSIFICATION_TYPE":"U","NORAD_CAT_ID":24817,"ELEMENT_SET_NO":999,"REV_AT_EPOCH":50638,"BSTAR":0.0011603059,"MEAN_MOTION_DOT":4.738e-5,"MEAN_MOTION_DDOT":0}]
